{"type":"FeatureCollection","features":[{"type":"Feature","id":1,"geometry":{"type":"Polygon","coordinates":[[[-90.453,42.359],[-90.477,42.384],[-90.554,42.416],[-90.566,42.44],[-90.644,42.47],[-90.656,42.492],[-90.641,42.508],[-90.104,42.508],[-88.801,42.492],[-87.803,42.492],[-87.797,42.468],[-87.805,42.384],[-87.814,42.382],[-87.808,42.383],[-87.815,42.361],[-87.825,42.365],[-87.829,42.312],[-87.836,42.309],[-87.828,42.27],[-87.801,42.21],[-87.742,42.128],[-87.713,42.097],[-87.68,42.079],[-87.686,42.075],[-87.67,42.059],[-87.673,42.048],[-87.655,41.989],[-87.643,41.969],[-87.632,41.965],[-87.642,41.962],[-87.633,41.942],[-87.642,41.948],[-87.62,41.914],[-87.624,41.904],[-87.614,41.893],[-87.599,41.892],[-87.614,41.891],[-87.616,41.869],[-87.606,41.867],[-87.607,41.853],[-87.613,41.864],[-87.605,41.834],[-87.575,41.796],[-87.584,41.782],[-87.577,41.788],[-87.569,41.781],[-87.578,41.776],[-87.572,41.779],[-87.531,41.748],[-87.529,41.741],[-87.54,41.74],[-87.53,41.74],[-87.529,41.734],[-87.542,41.727],[-87.53,41.732],[-87.525,41.723],[-87.531,39.348],[-87.543,39.353],[-87.555,39.341],[-87.581,39.339],[-87.606,39.311],[-87.621,39.307],[-87.598,39.299],[-87.61,39.281],[-87.594,39.247],[-87.572,39.254],[-87.579,39.243],[-87.575,39.215],[-87.607,39.185],[-87.62,39.186],[-87.62,39.171],[-87.641,39.165],[-87.628,39.155],[-87.642,39.158],[-87.659,39.136],[-87.632,39.119],[-87.651,39.117],[-87.653,39.107],[-87.615,39.103],[-87.62,39.087],[-87.597,39.08],[-87.573,39.057],[-87.58,39.041],[-87.569,39.02],[-87.579,39.0],[-87.561,38.992],[-87.577,38.987],[-87.531,38.972],[-87.512,38.955],[-87.522,38.941],[-87.519,38.924],[-87.528,38.919],[-87.527,38.907],[-87.517,38.904],[-87.533,38.901],[-87.536,38.887],[-87.544,38.895],[-87.535,38.88],[-87.548,38.876],[-87.543,38.864],[-87.554,38.863],[-87.526,38.849],[-87.522,38.827],[-87.527,38.818],[-87.495,38.784],[-87.515,38.771],[-87.497,38.767],[-87.505,38.748],[-87.496,38.741],[-87.506,38.735],[-87.52,38.698],[-87.535,38.682],[-87.594,38.667],[-87.605,38.647],[-87.62,38.64],[-87.616,38.625],[-87.627,38.606],[-87.612,38.59],[-87.639,38.592],[-87.638,38.576],[-87.651,38.569],[-87.651,38.556],[-87.67,38.546],[-87.646,38.514],[-87.648,38.507],[-87.657,38.502],[-87.673,38.507],[-87.691,38.489],[-87.75,38.471],[-87.756,38.456],[-87.731,38.446],[-87.742,38.436],[-87.746,38.408],[-87.78,38.371],[-87.806,38.363],[-87.823,38.347],[-87.84,38.281],[-87.862,38.278],[-87.866,38.29],[-87.861,38.306],[-87.871,38.312],[-87.887,38.286],[-87.91,38.268],[-87.919,38.275],[-87.91,38.296],[-87.935,38.295],[-87.952,38.274],[-87.942,38.259],[-87.957,38.251],[-87.96,38.237],[-87.988,38.257],[-87.98,38.24],[-87.986,38.216],[-87.979,38.201],[-87.937,38.172],[-87.934,38.157],[-87.925,38.16],[-87.922,38.174],[-87.911,38.163],[-87.945,38.127],[-87.966,38.132],[-87.977,38.109],[-88.003,38.109],[-88.015,38.101],[-88.011,38.084],[-87.961,38.1],[-87.956,38.088],[-87.967,38.067],[-87.982,38.058],[-88.043,38.045],[-88.036,38.033],[-88.008,38.031],[-88.026,38.008],[-88.012,37.968],[-88.037,37.957],[-88.034,37.926],[-88.057,37.934],[-88.069,37.925],[-88.061,37.917],[-88.023,37.915],[-88.014,37.893],[-88.053,37.892],[-88.087,37.906],[-88.097,37.903],[-88.065,37.853],[-88.026,37.833],[-88.045,37.821],[-88.084,37.83],[-88.09,37.817],[-88.068,37.801],[-88.038,37.81],[-88.029,37.799],[-88.059,37.743],[-88.122,37.71],[-88.16,37.658],[-88.133,37.573],[-88.07,37.526],[-88.061,37.504],[-88.065,37.489],[-88.085,37.472],[-88.283,37.452],[-88.324,37.434],[-88.365,37.402],[-88.409,37.425],[-88.451,37.412],[-88.47,37.398],[-88.484,37.348],[-88.516,37.284],[-88.504,37.265],[-88.511,37.261],[-88.448,37.204],[-88.425,37.152],[-88.446,37.093],[-88.462,37.073],[-88.516,37.065],[-88.566,37.075],[-88.587,37.098],[-88.629,37.121],[-88.693,37.141],[-88.731,37.143],[-88.802,37.188],[-88.875,37.212],[-88.932,37.227],[-88.973,37.228],[-88.967,37.23],[-89.029,37.211],[-89.076,37.175],[-89.107,37.126],[-89.174,37.067],[-89.183,37.039],[-89.179,37.021],[-89.167,37.004],[-89.133,36.983],[-89.17,36.97],[-89.19,36.975],[-89.2,37.015],[-89.236,37.04],[-89.255,37.072],[-89.26,37.065],[-89.308,37.07],[-89.31,37.064],[-89.305,37.047],[-89.258,37.019],[-89.264,36.998],[-89.281,36.988],[-89.321,37.015],[-89.379,37.04],[-89.385,37.057],[-89.376,37.08],[-89.378,37.095],[-89.427,37.14],[-89.461,37.197],[-89.467,37.22],[-89.458,37.248],[-89.5,37.252],[-89.518,37.285],[-89.512,37.31],[-89.49,37.333],[-89.434,37.346],[-89.421,37.388],[-89.44,37.437],[-89.475,37.471],[-89.517,37.537],[-89.52,37.582],[-89.487,37.581],[-89.476,37.593],[-89.517,37.639],[-89.515,37.691],[-89.604,37.719],[-89.663,37.75],[-89.668,37.759],[-89.661,37.786],[-89.67,37.8],[-89.716,37.825],[-89.74,37.847],[-89.786,37.852],[-89.8,37.869],[-89.799,37.881],[-89.841,37.905],[-89.902,37.87],[-89.949,37.88],[-89.975,37.927],[-89.959,37.94],[-89.932,37.948],[-89.925,37.96],[-89.936,37.96],[-89.941,37.971],[-90.0,37.964],[-90.13,38.063],[-90.174,38.07],[-90.22,38.095],[-90.244,38.114],[-90.276,38.158],[-90.332,38.188],[-90.36,38.224],[-90.374,38.282],[-90.373,38.329],[-90.352,38.375],[-90.297,38.424],[-90.282,38.448],[-90.254,38.538],[-90.185,38.611],[-90.18,38.653],[-90.21,38.704],[-90.212,38.721],[-90.179,38.75],[-90.166,38.773],[-90.121,38.8],[-90.109,38.838],[-90.113,38.849],[-90.251,38.92],[-90.309,38.924],[-90.392,38.959],[-90.44,38.967],[-90.472,38.959],[-90.499,38.912],[-90.549,38.873],[-90.585,38.869],[-90.625,38.889],[-90.663,38.927],[-90.679,38.993],[-90.713,39.051],[-90.681,39.1],[-90.708,39.152],[-90.73,39.256],[-90.752,39.266],[-90.794,39.31],[-90.928,39.387],[-90.941,39.404],[-91.038,39.449],[-91.062,39.473],[-91.073,39.528],[-91.153,39.548],[-91.169,39.565],[-91.183,39.603],[-91.23,39.621],[-91.276,39.665],[-91.355,39.717],[-91.37,39.733],[-91.365,39.795],[-91.377,39.81],[-91.431,39.839],[-91.447,39.872],[-91.444,39.893],[-91.421,39.915],[-91.42,39.927],[-91.465,39.983],[-91.495,40.036],[-91.49,40.057],[-91.51,40.125],[-91.506,40.16],[-91.513,40.179],[-91.504,40.198],[-91.507,40.237],[-91.491,40.259],[-91.493,40.279],[-91.464,40.34],[-91.443,40.364],[-91.415,40.382],[-91.384,40.387],[-91.374,40.398],[-91.381,40.445],[-91.364,40.499],[-91.383,40.53],[-91.404,40.539],[-91.406,40.553],[-91.341,40.613],[-91.25,40.638],[-91.188,40.637],[-91.124,40.668],[-91.111,40.699],[-91.111,40.745],[-91.092,40.78],[-91.098,40.807],[-91.092,40.822],[-91.057,40.847],[-91.008,40.903],[-90.966,40.922],[-90.952,40.956],[-90.959,40.977],[-90.945,41.013],[-90.948,41.1],[-90.994,41.16],[-91.042,41.166],[-91.073,41.207],[-91.114,41.241],[-91.113,41.252],[-91.075,41.306],[-91.067,41.366],[-91.052,41.385],[-91.046,41.413],[-90.98,41.434],[-90.93,41.421],[-90.846,41.455],[-90.748,41.45],[-90.657,41.462],[-90.61,41.491],[-90.596,41.511],[-90.556,41.524],[-90.466,41.521],[-90.414,41.565],[-90.343,41.588],[-90.343,41.648],[-90.334,41.68],[-90.314,41.697],[-90.317,41.724],[-90.308,41.745],[-90.285,41.765],[-90.181,41.808],[-90.184,41.838],[-90.153,41.911],[-90.152,41.931],[-90.164,41.946],[-90.164,41.958],[-90.139,42.0],[-90.151,42.032],[-90.165,42.045],[-90.162,42.113],[-90.172,42.125],[-90.201,42.13],[-90.215,42.156],[-90.379,42.218],[-90.421,42.257],[-90.431,42.281],[-90.416,42.324],[-90.453,42.359]]]},"properties":{"OBJECTID":1,"SHAPE_Length":22.02038957842406,"SHAPE_Area":15.407429191973655,"centerPointLat":40.0650073907006,"centerPointLong":-89.19833616976243}}]}