{"type":"FeatureCollection","features":[{"type":"Feature","properties":{"STATEFP":"18","NAME":"Indiana"},"geometry":{"type":"Polygon","coordinates":[[[-88.09776,37.90403],[-88.09448,37.90596],[-88.08624,37.90571],[-88.07145,37.89581],[-88.05816,37.89275],[-88.05537,37.89124],[-88.04493,37.89122],[-88.03599,37.89278],[-88.02914,37.89264],[-88.02482,37.88886],[-88.02028,37.88805],[-88.01515,37.89079],[-88.01448,37.89232],[-88.01336,37.89485],[-88.01782,37.9027],[-88.01998,37.90977],[-88.02006,37.9129],[-88.02251,37.91476],[-88.03185,37.91375],[-88.03638,37.9149],[-88.05192,37.91589],[-88.06302,37.9182],[-88.06822,37.92271],[-88.06961,37.92685],[-88.06756,37.93021],[-88.05977,37.93386],[-88.05476,37.93349],[-88.05279,37.93049],[-88.04866,37.92676],[-88.0413,37.92429],[-88.03535,37.92553],[-88.03042,37.9301],[-88.03612,37.94275],[-88.03679,37.95679],[-88.03199,37.95859],[-88.02087,37.95935],[-88.01631,37.96157],[-88.01293,37.96654],[-88.01257,37.97706],[-88.02286,37.99798],[-88.02583,38.00724],[-88.02522,38.01063],[-88.02513,38.01114],[-88.02243,38.01714],[-88.02093,38.01902],[-88.01693,38.02405],[-88.00863,38.02755],[-88.00763,38.02914],[-88.00893,38.03195],[-88.01213,38.03384],[-88.01763,38.03475],[-88.02773,38.03175],[-88.03413,38.03204],[-88.04023,38.03565],[-88.04158,38.03802],[-88.0417,38.03824],[-88.04214,38.03901],[-88.04213,38.04635],[-88.03783,38.05024],[-88.03263,38.05174],[-88.02063,38.05185],[-88.00133,38.05154],[-87.97874,38.05982],[-87.96723,38.0671],[-87.95797,38.08384],[-87.95666,38.0862],[-87.95746,38.08891],[-87.95751,38.08908],[-87.95982,38.0969],[-87.96046,38.09909],[-87.96221,38.10005],[-87.96803,38.09628],[-88.0047,38.08396],[-88.01139,38.08469],[-88.01463,38.0904],[-88.01673,38.09726],[-88.01312,38.10353],[-87.99831,38.10849],[-87.98307,38.10714],[-87.9753,38.11005],[-87.97377,38.11445],[-87.97427,38.12198],[-87.97098,38.12799],[-87.96946,38.13074],[-87.96576,38.13262],[-87.96048,38.13209],[-87.95587,38.1329],[-87.95069,38.13024],[-87.94747,38.12722],[-87.94547,38.12662],[-87.94044,38.13371],[-87.93514,38.13943],[-87.92942,38.14073],[-87.92663,38.14255],[-87.9255,38.14625],[-87.9269,38.14918],[-87.92827,38.15089],[-87.92589,38.15291],[-87.92365,38.15312],[-87.91684,38.15687],[-87.91518,38.15779],[-87.91143,38.16174],[-87.91062,38.1666],[-87.91255,38.17076],[-87.91567,38.17332],[-87.91906,38.17399],[-87.92065,38.1737],[-87.9229,38.17329],[-87.92529,38.17032],[-87.9259,38.16647],[-87.92451,38.16202],[-87.92639,38.15884],[-87.93121,38.15635],[-87.9343,38.15646],[-87.93525,38.15874],[-87.93376,38.16435],[-87.93644,38.17135],[-87.94049,38.1749],[-87.95892,38.18405],[-87.96986,38.19179],[-87.97582,38.19783],[-87.9782,38.20112],[-87.98397,38.20911],[-87.98516,38.21551],[-87.98563,38.21799],[-87.98487,38.22852],[-87.9837,38.23035],[-87.98047,38.23541],[-87.97963,38.24055],[-87.9824,38.2487],[-87.98352,38.25005],[-87.98804,38.25549],[-87.98772,38.25691],[-87.98762,38.25738],[-87.98471,38.25795],[-87.98187,38.25644],[-87.97226,38.24704],[-87.96995,38.24335],[-87.97064,38.24065],[-87.96897,38.23739],[-87.96428,38.2363],[-87.96022,38.23712],[-87.95799,38.2401],[-87.95888,38.24667],[-87.95761,38.25005],[-87.95403,38.25303],[-87.94607,38.25532],[-87.94303,38.25779],[-87.94207,38.2603],[-87.94661,38.26275],[-87.95065,38.26682],[-87.9522,38.2731],[-87.9503,38.27679],[-87.94233,38.2794],[-87.93921,38.28292],[-87.93752,38.29205],[-87.93356,38.2959],[-87.92283,38.2992],[-87.91649,38.29937],[-87.90954,38.29606],[-87.90799,38.29233],[-87.91709,38.28008],[-87.91947,38.27455],[-87.91761,38.27008],[-87.91111,38.26803],[-87.90684,38.26963],[-87.8978,38.27948],[-87.89233,38.28268],[-87.88785,38.2853],[-87.88359,38.29522],[-87.88008,38.30535],[-87.87566,38.30993],[-87.87054,38.31222],[-87.86427,38.3107],[-87.86112,38.30783],[-87.86045,38.30311],[-87.86481,38.29539],[-87.86625,38.28998],[-87.86303,38.28017],[-87.85965,38.27671],[-87.85113,38.27512],[-87.84345,38.27817],[-87.83898,38.28233],[-87.83393,38.29061],[-87.83095,38.29937],[-87.83085,38.30561],[-87.8334,38.31665],[-87.83198,38.32697],[-87.82768,38.33403],[-87.82341,38.34597],[-87.81379,38.35379],[-87.80889,38.35973],[-87.8067,38.36238],[-87.80608,38.36314],[-87.79025,38.3667],[-87.78308,38.36886],[-87.76972,38.3807],[-87.76259,38.38894],[-87.75937,38.39266],[-87.75679,38.39565],[-87.7527,38.40038],[-87.7527,38.40039],[-87.74525,38.409],[-87.74377,38.41311],[-87.74369,38.41439],[-87.74349,38.41732],[-87.74283,38.42733],[-87.73977,38.43798],[-87.7307,38.44291],[-87.73037,38.44788],[-87.73197,38.45078],[-87.74053,38.45472],[-87.7508,38.4542],[-87.75593,38.45588],[-87.75671,38.4603],[-87.75535,38.46396],[-87.75384,38.46584],[-87.74464,38.47727],[-87.74322,38.47767],[-87.73485,38.48002],[-87.73465,38.48008],[-87.71405,38.47988],[-87.68592,38.49184],[-87.67837,38.49844],[-87.67238,38.5074],[-87.66981,38.50718],[-87.6637,38.50293],[-87.65674,38.50176],[-87.65009,38.50461],[-87.64535,38.51016],[-87.64623,38.51509],[-87.65012,38.51755],[-87.65528,38.5208],[-87.65948,38.52671],[-87.66098,38.53214],[-87.66923,38.54174],[-87.67007,38.54524],[-87.66845,38.54774],[-87.66544,38.54995],[-87.65727,38.55328],[-87.6564,38.55363],[-87.6507,38.55624],[-87.65021,38.55842],[-87.65274,38.56446],[-87.65153,38.56817],[-87.65018,38.57006],[-87.64725,38.57147],[-87.64294,38.57228],[-87.63957,38.57416],[-87.63807,38.57783],[-87.63978,38.582],[-87.63995,38.58516],[-87.64021,38.5898],[-87.63778,38.59248],[-87.63763,38.59265],[-87.63482,38.59269],[-87.62816,38.5881],[-87.6229,38.5862],[-87.61451,38.58751],[-87.61196,38.58925],[-87.61091,38.59141],[-87.61135,38.59361],[-87.61346,38.59504],[-87.61944,38.59482],[-87.62414,38.59696],[-87.62729,38.6053],[-87.62735,38.60544],[-87.6266,38.60832],[-87.62053,38.61216],[-87.62035,38.61279],[-87.62276,38.61708],[-87.62179,38.6196],[-87.61615,38.62322],[-87.61574,38.62729],[-87.61892,38.63138],[-87.6209,38.63613],[-87.62012,38.63949],[-87.61732,38.64216],[-87.61148,38.64391],[-87.6079,38.64498],[-87.60582,38.64652],[-87.60295,38.65124],[-87.60286,38.65636],[-87.60018,38.66246],[-87.59725,38.66531],[-87.58768,38.66998],[-87.5794,38.67247],[-87.56439,38.67475],[-87.54554,38.67761],[-87.54005,38.67914],[-87.53541,38.68172],[-87.53534,38.68176],[-87.53123,38.68404],[-87.52871,38.68659],[-87.52204,38.69335],[-87.52113,38.69522],[-87.51904,38.69953],[-87.51919,38.70293],[-87.51952,38.71046],[-87.51671,38.71633],[-87.50852,38.72577],[-87.50583,38.73354],[-87.50534,38.73497],[-87.49652,38.73934],[-87.49624,38.74108],[-87.49608,38.74211],[-87.50332,38.74708],[-87.50401,38.74971],[-87.49895,38.75777],[-87.4977,38.76259],[-87.497,38.76531],[-87.49788,38.76748],[-87.49822,38.76831],[-87.50252,38.76917],[-87.50818,38.76731],[-87.51197,38.76754],[-87.51437,38.76917],[-87.51455,38.77182],[-87.5118,38.77356],[-87.5043,38.77385],[-87.49743,38.77744],[-87.4952,38.78198],[-87.4959,38.78543],[-87.50313,38.79287],[-87.50821,38.79572],[-87.5216,38.81301],[-87.52734,38.81812],[-87.52646,38.82054],[-87.52391,38.82228],[-87.52168,38.82658],[-87.52221,38.83048],[-87.52403,38.83291],[-87.5267,38.83858],[-87.52589,38.8488],[-87.52819,38.85169],[-87.53206,38.8525],[-87.53725,38.85359],[-87.55203,38.86032],[-87.55339,38.86241],[-87.55207,38.86451],[-87.54572,38.86303],[-87.54319,38.86421],[-87.54261,38.86664],[-87.54761,38.87252],[-87.54737,38.87561],[-87.5452,38.87673],[-87.53682,38.87741],[-87.53492,38.87887],[-87.53554,38.88155],[-87.53828,38.8858],[-87.54429,38.88895],[-87.54513,38.89147],[-87.54492,38.89345],[-87.54409,38.89509],[-87.54163,38.89638],[-87.53912,38.89612],[-87.53859,38.89553],[-87.53841,38.89258],[-87.53772,38.89093],[-87.5376,38.88955],[-87.53626,38.88743],[-87.5357,38.88721],[-87.53517,38.88793],[-87.53436,38.89038],[-87.53447,38.89234],[-87.5364,38.89456],[-87.53659,38.89557],[-87.53369,38.90096],[-87.53134,38.90179],[-87.52251,38.90239],[-87.51801,38.9027],[-87.51673,38.90412],[-87.51773,38.90567],[-87.52431,38.90519],[-87.52729,38.90722],[-87.52789,38.9092],[-87.52603,38.91361],[-87.5277,38.91845],[-87.52606,38.92135],[-87.52063,38.92166],[-87.51883,38.92321],[-87.51879,38.92784],[-87.51798,38.92978],[-87.51663,38.93299],[-87.51735,38.93494],[-87.52185,38.94007],[-87.52128,38.94184],[-87.51958,38.94312],[-87.51634,38.94556],[-87.51293,38.95013],[-87.51219,38.95442],[-87.51335,38.956],[-87.51742,38.95816],[-87.52061,38.95984],[-87.52496,38.96384],[-87.527,38.96883],[-87.5295,38.97192],[-87.54244,38.97559],[-87.54803,38.9785],[-87.56028,38.98137],[-87.57653,38.98671],[-87.57849,38.98975],[-87.57698,38.99127],[-87.5734,38.99143],[-87.56519,38.9888],[-87.56204,38.98947],[-87.56043,38.99242],[-87.56289,38.99443],[-87.56709,38.99354],[-87.57542,38.99648],[-87.57865,38.9995],[-87.57889,39.00241],[-87.57376,39.00868],[-87.5697,39.01941],[-87.56987,39.02311],[-87.57503,39.03406],[-87.58025,39.03938],[-87.58021,39.04194],[-87.57255,39.05006],[-87.57259,39.05729],[-87.5787,39.0617],[-87.58355,39.06795],[-87.59013,39.07227],[-87.59152,39.07318],[-87.59556,39.07898],[-87.6011,39.0814],[-87.6107,39.08123],[-87.61596,39.08257],[-87.61819,39.08502],[-87.62098,39.0881],[-87.62039,39.09152],[-87.61547,39.09577],[-87.61395,39.09954],[-87.61488,39.10265],[-87.61839,39.10428],[-87.63265,39.10491],[-87.63859,39.10589],[-87.64461,39.10443],[-87.64917,39.1048],[-87.6528,39.10684],[-87.65484,39.11055],[-87.65504,39.11092],[-87.65418,39.11338],[-87.65102,39.11644],[-87.64159,39.11454],[-87.6359,39.11833],[-87.63497,39.12009],[-87.6351,39.1223],[-87.63799,39.12343],[-87.64089,39.12277],[-87.64217,39.12321],[-87.64205,39.12504],[-87.64315,39.12856],[-87.64617,39.12989],[-87.6515,39.13082],[-87.65524,39.13228],[-87.65874,39.136],[-87.6582,39.1384],[-87.6532,39.14399],[-87.65326,39.14771],[-87.65172,39.1506],[-87.64497,39.1543],[-87.64217,39.1571],[-87.63744,39.15677],[-87.63438,39.15342],[-87.63157,39.15299],[-87.62874,39.15392],[-87.62774,39.15623],[-87.62937,39.15753],[-87.63038,39.15834],[-87.63743,39.15902],[-87.64141,39.16035],[-87.64207,39.16248],[-87.64043,39.16673],[-87.63649,39.16883],[-87.62502,39.1693],[-87.62052,39.17033],[-87.6194,39.17207],[-87.61941,39.17209],[-87.6208,39.17479],[-87.6214,39.17887],[-87.62043,39.18502],[-87.6204,39.1852],[-87.61855,39.1864],[-87.61105,39.18409],[-87.60517,39.1859],[-87.60304,39.1913],[-87.6001,39.19344],[-87.59415,39.19493],[-87.58659,39.19963],[-87.58498,39.20528],[-87.57703,39.21112],[-87.57456,39.2184],[-87.57761,39.23918],[-87.57932,39.24355],[-87.57822,39.24479],[-87.57307,39.24669],[-87.57133,39.25138],[-87.57344,39.25458],[-87.58065,39.25524],[-87.58518,39.25314],[-87.58716,39.24962],[-87.59111,39.24726],[-87.59349,39.24745],[-87.59813,39.25409],[-87.60411,39.25946],[-87.60413,39.25947],[-87.60495,39.26021],[-87.60557,39.2624],[-87.6015,39.27224],[-87.60195,39.27517],[-87.60734,39.27621],[-87.60944,39.27853],[-87.60992,39.28142],[-87.60875,39.28669],[-87.59991,39.29358],[-87.59732,39.29696],[-87.59842,39.30009],[-87.60535,39.30322],[-87.615,39.3009],[-87.61896,39.30169],[-87.62118,39.30416],[-87.62049,39.30713],[-87.61261,39.30857],[-87.60592,39.31108],[-87.60066,39.31853],[-87.59673,39.32203],[-87.59023,39.33207],[-87.58908,39.33383],[-87.58485,39.33733],[-87.57408,39.34142],[-87.56069,39.33885],[-87.5544,39.34049],[-87.55026,39.34335],[-87.54969,39.34657],[-87.54948,39.34774],[-87.54588,39.35215],[-87.54401,39.35291],[-87.54038,39.35295],[-87.53727,39.35209],[-87.53242,39.34793],[-87.53168,39.34806],[-87.53165,39.34806],[-87.53167,39.35971],[-87.53169,39.37104],[-87.53142,39.37504],[-87.53137,39.41058],[-87.53141,39.43666],[-87.53141,39.4375],[-87.53141,39.43856],[-87.53166,39.47711],[-87.53168,39.48014],[-87.53172,39.48644],[-87.53193,39.52036],[-87.53194,39.52335],[-87.53197,39.53506],[-87.53198,39.5454],[-87.53203,39.56835],[-87.53207,39.57843],[-87.53213,39.59298],[-87.53219,39.60731],[-87.5323,39.63611],[-87.53267,39.66491],[-87.53267,39.66491],[-87.53267,39.66512],[-87.53278,39.69447],[-87.53284,39.70882],[-87.53292,39.73076],[-87.53315,39.78066],[-87.53314,39.79626],[-87.53313,39.81098],[-87.53313,39.82333],[-87.53312,39.8326],[-87.53319,39.85338],[-87.53326,39.87198],[-87.53319,39.883],[-87.53301,39.91036],[-87.533,39.91252],[-87.53275,39.94501],[-87.53274,39.947],[-87.53273,39.94877],[-87.53269,39.95613],[-87.53262,39.97124],[-87.53243,39.98605],[-87.53236,39.99161],[-87.53236,39.99998],[-87.53235,40.01183],[-87.53235,40.02656],[-87.53219,40.05615],[-87.53217,40.0588],[-87.53195,40.08886],[-87.53188,40.0975],[-87.53183,40.10339],[-87.53171,40.11782],[-87.53171,40.11806],[-87.53165,40.12552],[-87.5315,40.14277],[-87.53146,40.14799],[-87.53146,40.14813],[-87.53145,40.14829],[-87.53113,40.16999],[-87.53102,40.17719],[-87.53082,40.19036],[-87.53078,40.19396],[-87.53071,40.19941],[-87.53056,40.21168],[-87.53051,40.21478],[-87.53021,40.23598],[-87.53021,40.23599],[-87.52998,40.252],[-87.52971,40.27229],[-87.52953,40.2866],[-87.52943,40.29377],[-87.52928,40.3036],[-87.52885,40.33057],[-87.52816,40.37418],[-87.52795,40.38851],[-87.52794,40.38896],[-87.52729,40.4327],[-87.52712,40.44436],[-87.5266,40.47688],[-87.52637,40.49124],[-87.52632,40.49399],[-87.52637,40.52025],[-87.52625,40.56422],[-87.52624,40.56727],[-87.52621,40.57824],[-87.52621,40.57866],[-87.52621,40.60791],[-87.52622,40.64978],[-87.52622,40.66051],[-87.52616,40.69008],[-87.52605,40.73628],[-87.52605,40.73689],[-87.52601,40.74974],[-87.52593,40.77766],[-87.52588,40.79292],[-87.52584,40.8069],[-87.52584,40.81725],[-87.52584,40.81731],[-87.52583,40.85179],[-87.52583,40.85361],[-87.526,40.86502],[-87.52644,40.89415],[-87.52597,40.89437],[-87.52605,40.90644],[-87.52608,40.91184],[-87.52608,40.91191],[-87.52606,40.93759],[-87.52605,40.94492],[-87.52628,40.99976],[-87.52629,41.00155],[-87.5263,41.00268],[-87.52634,41.01034],[-87.52643,41.02437],[-87.52643,41.05515],[-87.52651,41.06679],[-87.52656,41.08717],[-87.52657,41.09446],[-87.52663,41.12145],[-87.5267,41.14922],[-87.52659,41.16609],[-87.52659,41.16621],[-87.52662,41.19448],[-87.52663,41.20914],[-87.52671,41.28297],[-87.52673,41.29805],[-87.52673,41.29818],[-87.52652,41.34159],[-87.52649,41.34837],[-87.52648,41.35089],[-87.52623,41.38529],[-87.52613,41.39933],[-87.52608,41.40552],[-87.52593,41.42618],[-87.52592,41.427],[-87.52586,41.43559],[-87.52586,41.43559],[-87.52578,41.44577],[-87.52576,41.4537],[-87.52573,41.46227],[-87.52572,41.4646],[-87.52571,41.47028],[-87.52568,41.47182],[-87.52564,41.47549],[-87.52558,41.47935],[-87.52554,41.48281],[-87.52556,41.49104],[-87.52556,41.49463],[-87.52556,41.49463],[-87.52557,41.49888],[-87.52559,41.50854],[-87.52561,41.51744],[-87.52558,41.52265],[-87.52556,41.52474],[-87.52554,41.52834],[-87.52541,41.54748],[-87.52541,41.54782],[-87.5254,41.54867],[-87.5254,41.549],[-87.52539,41.55029],[-87.52535,41.55678],[-87.52534,41.55754],[-87.52533,41.55885],[-87.52534,41.56347],[-87.52535,41.57009],[-87.52535,41.57028],[-87.52537,41.57711],[-87.52537,41.57713],[-87.52537,41.57855],[-87.52538,41.58136],[-87.52538,41.58138],[-87.52539,41.58564],[-87.52537,41.58744],[-87.52533,41.59198],[-87.52531,41.59435],[-87.52526,41.60075],[-87.52526,41.60106],[-87.5252,41.6077],[-87.52518,41.60946],[-87.52517,41.6112],[-87.52516,41.61383],[-87.52515,41.61552],[-87.52514,41.61916],[-87.52512,41.62261],[-87.52512,41.62305],[-87.52511,41.62594],[-87.52509,41.63021],[-87.52508,41.63299],[-87.52507,41.63547],[-87.52505,41.63928],[-87.52501,41.64464],[-87.52498,41.65012],[-87.52498,41.65023],[-87.52485,41.66988],[-87.52463,41.6918],[-87.52456,41.69904],[-87.52454,41.70087],[-87.52445,41.70268],[-87.52416,41.70831],[-87.52131,41.71003],[-87.51495,41.70456],[-87.5171,41.70296],[-87.51615,41.70152],[-87.51115,41.69752],[-87.51086,41.69614],[-87.508,41.69411],[-87.50794,41.69416],[-87.50653,41.69544],[-87.50538,41.69466],[-87.50394,41.69369],[-87.50419,41.69232],[-87.50451,41.69157],[-87.50028,41.6892],[-87.49842,41.68816],[-87.49094,41.68491],[-87.48889,41.68442],[-87.48511,41.68359],[-87.48505,41.68354],[-87.48403,41.68267],[-87.48538,41.68123],[-87.48256,41.67944],[-87.47992,41.67881],[-87.47875,41.67979],[-87.4758,41.67786],[-87.47549,41.67704],[-87.47631,41.67523],[-87.47074,41.67283],[-87.46801,41.67243],[-87.46418,41.67688],[-87.46265,41.67818],[-87.46222,41.67838],[-87.44991,41.68418],[-87.4468,41.68321],[-87.44256,41.67251],[-87.44277,41.66783],[-87.44156,41.667],[-87.43803,41.66456],[-87.43364,41.66814],[-87.43627,41.67131],[-87.43934,41.68013],[-87.42488,41.69007],[-87.41582,41.68818],[-87.41087,41.68399],[-87.40793,41.68027],[-87.41449,41.67575],[-87.40874,41.67028],[-87.42115,41.65952],[-87.43235,41.65644],[-87.4338,41.65605],[-87.43703,41.65516],[-87.4371,41.65443],[-87.43715,41.654],[-87.43642,41.65382],[-87.43517,41.6535],[-87.43311,41.64904],[-87.4331,41.64901],[-87.42984,41.64603],[-87.42814,41.64509],[-87.42083,41.64105],[-87.42077,41.64101],[-87.41855,41.64187],[-87.41672,41.6409],[-87.41154,41.6437],[-87.41033,41.64252],[-87.40839,41.64264],[-87.40582,41.64163],[-87.4057,41.64159],[-87.40169,41.63932],[-87.40155,41.63928],[-87.39477,41.6373],[-87.39454,41.63723],[-87.36886,41.63004],[-87.36703,41.62963],[-87.36286,41.62869],[-87.36189,41.62855],[-87.35779,41.62799],[-87.3474,41.62658],[-87.32791,41.62494],[-87.32561,41.62461],[-87.31865,41.62361],[-87.31857,41.62118],[-87.31211,41.62069],[-87.31105,41.62209],[-87.30598,41.62228],[-87.30443,41.61949],[-87.29902,41.61909],[-87.29777,41.62327],[-87.29349,41.62368],[-87.29071,41.62299],[-87.28897,41.62246],[-87.28881,41.62128],[-87.28876,41.62085],[-87.2784,41.62017],[-87.27808,41.62015],[-87.26163,41.62052],[-87.26148,41.62054],[-87.25397,41.62124],[-87.22264,41.62417],[-87.22066,41.62436],[-87.20278,41.62722],[-87.18765,41.62965],[-87.18354,41.63032],[-87.1796,41.63096],[-87.1771,41.63184],[-87.17602,41.63387],[-87.1757,41.63418],[-87.17463,41.63407],[-87.16209,41.63539],[-87.1617,41.63506],[-87.16175,41.63149],[-87.15867,41.6314],[-87.15853,41.64024],[-87.1581,41.64159],[-87.15047,41.64142],[-87.1505,41.63589],[-87.14745,41.63592],[-87.1475,41.64556],[-87.14698,41.64614],[-87.14696,41.64617],[-87.14454,41.64586],[-87.14451,41.64586],[-87.14215,41.64556],[-87.14185,41.64552],[-87.13015,41.64837],[-87.12844,41.64638],[-87.12838,41.64632],[-87.12039,41.6471],[-87.12037,41.64711],[-87.09905,41.65177],[-87.07706,41.65848],[-87.06747,41.66141],[-87.06603,41.66184],[-87.02789,41.67466],[-87.00964,41.68152],[-86.99441,41.68725],[-86.96314,41.69958],[-86.94338,41.7066],[-86.93349,41.70928],[-86.93272,41.70952],[-86.92274,41.71272],[-86.92219,41.71395],[-86.92184,41.71475],[-86.91639,41.71639],[-86.91334,41.72256],[-86.91062,41.72435],[-86.91027,41.72496],[-86.90913,41.72694],[-86.89074,41.73212],[-86.87545,41.73793],[-86.87543,41.73794],[-86.85856,41.74537],[-86.85812,41.74557],[-86.84453,41.75156],[-86.83756,41.75463],[-86.82483,41.76024],[-86.82428,41.76024],[-86.82363,41.76024],[-86.81607,41.76024],[-86.81059,41.76024],[-86.8045,41.76024],[-86.80443,41.76024],[-86.80158,41.76024],[-86.80071,41.76024],[-86.80061,41.76025],[-86.80046,41.76025],[-86.78018,41.76014],[-86.7481,41.75997],[-86.74652,41.75998],[-86.74617,41.75998],[-86.7223,41.7599],[-86.69968,41.75983],[-86.66875,41.75972],[-86.64136,41.75963],[-86.64119,41.75963],[-86.64004,41.75967],[-86.58325,41.75957],[-86.5724,41.75955],[-86.52422,41.75946],[-86.51932,41.75945],[-86.50177,41.75955],[-86.47441,41.75963],[-86.45523,41.75968],[-86.42618,41.75976],[-86.41458,41.75979],[-86.36073,41.75994],[-86.35079,41.75997],[-86.34105,41.76],[-86.33199,41.76002],[-86.32364,41.76005],[-86.31304,41.76008],[-86.30382,41.7601],[-86.27249,41.76019],[-86.27243,41.76019],[-86.2655,41.76021],[-86.24619,41.76011],[-86.24111,41.76009],[-86.2261,41.76002],[-86.22607,41.76002],[-86.21759,41.76002],[-86.21754,41.76002],[-86.17875,41.76027],[-86.17867,41.76027],[-86.17181,41.76031],[-86.15723,41.7604],[-86.12784,41.76059],[-86.12546,41.76056],[-86.12506,41.76058],[-86.10847,41.76056],[-86.10846,41.76056],[-86.08842,41.76055],[-86.06257,41.76053],[-86.04113,41.76051],[-86.04108,41.76051],[-86.04103,41.76051],[-86.00455,41.7601],[-85.99575,41.76],[-85.99138,41.75995],[-85.9913,41.75995],[-85.97498,41.75985],[-85.9749,41.75985],[-85.97484,41.75985],[-85.94232,41.75969],[-85.92613,41.75961],[-85.89744,41.75946],[-85.88882,41.75942],[-85.88877,41.75942],[-85.87801,41.75936],[-85.875,41.75934],[-85.87204,41.75937],[-85.84791,41.75927],[-85.81908,41.75916],[-85.79136,41.75905],[-85.79133,41.75905],[-85.79093,41.75905],[-85.77504,41.75915],[-85.77403,41.75914],[-85.75047,41.75909],[-85.74999,41.75909],[-85.73792,41.75909],[-85.72815,41.75909],[-85.72453,41.75908],[-85.71855,41.75909],[-85.68257,41.7591],[-85.67724,41.7591],[-85.66264,41.7591],[-85.65975,41.7591],[-85.65074,41.7591],[-85.64768,41.75912],[-85.63271,41.75916],[-85.62499,41.75909],[-85.62261,41.75905],[-85.62224,41.75905],[-85.60831,41.75919],[-85.60755,41.75908],[-85.52576,41.75948],[-85.51845,41.75951],[-85.51825,41.75951],[-85.516,41.75936],[-85.51596,41.75935],[-85.48664,41.75947],[-85.44115,41.75965],[-85.43247,41.75968],[-85.42755,41.75971],[-85.42561,41.75971],[-85.42061,41.75973],[-85.40875,41.75977],[-85.40875,41.75977],[-85.37913,41.75988],[-85.36831,41.75989],[-85.35502,41.7599],[-85.35017,41.75991],[-85.33062,41.75998],[-85.31813,41.75998],[-85.30814,41.7601],[-85.29837,41.76003],[-85.29218,41.75996],[-85.2921,41.75996],[-85.27371,41.75977],[-85.27295,41.75991],[-85.27222,41.76],[-85.23283,41.75984],[-85.19677,41.75974],[-85.19664,41.75973],[-85.17489,41.75963],[-85.17223,41.75962],[-85.1231,41.75974],[-85.11727,41.7597],[-85.08397,41.75982],[-85.05854,41.75992],[-85.04917,41.75995],[-85.03944,41.75999],[-85.03789,41.75981],[-85.03782,41.7598],[-85.03416,41.75978],[-85.01978,41.75968],[-84.98984,41.75948],[-84.9728,41.75937],[-84.97155,41.75953],[-84.97138,41.75953],[-84.96156,41.75955],[-84.96086,41.75944],[-84.9606,41.75944],[-84.94247,41.7596],[-84.93248,41.75969],[-84.93238,41.75969],[-84.93237,41.75969],[-84.91772,41.75973],[-84.86013,41.75989],[-84.8252,41.75999],[-84.82513,41.75999],[-84.81887,41.76006],[-84.80588,41.76022],[-84.80588,41.76017],[-84.80613,41.74312],[-84.80607,41.7376],[-84.80607,41.73291],[-84.80604,41.72054],[-84.80602,41.70748],[-84.80601,41.70274],[-84.806,41.69612],[-84.80597,41.69612],[-84.80605,41.68906],[-84.80621,41.67458],[-84.80599,41.65285],[-84.80586,41.64014],[-84.80568,41.62845],[-84.80567,41.61916],[-84.80567,41.61644],[-84.80566,41.61158],[-84.80535,41.58528],[-84.80483,41.54188],[-84.80469,41.53031],[-84.80469,41.53013],[-84.80457,41.51825],[-84.80455,41.51291],[-84.80448,41.50035],[-84.80434,41.48815],[-84.8042,41.46507],[-84.80407,41.44479],[-84.80402,41.43685],[-84.80406,41.42605],[-84.80392,41.41153],[-84.80394,41.40836],[-84.80398,41.40461],[-84.80392,41.37531],[-84.804,41.36574],[-84.80397,41.35776],[-84.80389,41.33988],[-84.80383,41.32494],[-84.80359,41.27179],[-84.80359,41.27102],[-84.80359,41.27093],[-84.80359,41.27083],[-84.80353,41.25382],[-84.80353,41.25256],[-84.80344,41.18506],[-84.80343,41.18032],[-84.80355,41.17207],[-84.80344,41.16433],[-84.80344,41.16405],[-84.80344,41.16164],[-84.80349,41.14222],[-84.80349,41.13591],[-84.8035,41.12126],[-84.8034,41.09687],[-84.80337,41.08929],[-84.80335,41.07748],[-84.80328,41.00958],[-84.80326,40.98939],[-84.80326,40.98824],[-84.80292,40.92257],[-84.80281,40.90225],[-84.80243,40.83468],[-84.80233,40.8151],[-84.80225,40.80075],[-84.80245,40.77165],[-84.80249,40.76534],[-84.80216,40.74718],[-84.80226,40.72936],[-84.80226,40.72815],[-84.80227,40.71858],[-84.80229,40.70299],[-84.80209,40.6915],[-84.8023,40.68055],[-84.80232,40.67726],[-84.80232,40.67479],[-84.80234,40.66034],[-84.80234,40.65847],[-84.80234,40.65755],[-84.80229,40.64302],[-84.8023,40.64048],[-84.80242,40.59694],[-84.80246,40.58236],[-84.80248,40.57267],[-84.80248,40.57221],[-84.80256,40.55294],[-84.80267,40.52492],[-84.80277,40.50918],[-84.80281,40.50188],[-84.80312,40.48472],[-84.80345,40.46539],[-84.80369,40.44752],[-84.80408,40.41665],[-84.80413,40.41301],[-84.80409,40.40254],[-84.80409,40.40246],[-84.80407,40.397],[-84.80401,40.38141],[-84.8039,40.35276],[-84.8039,40.35272],[-84.80384,40.34356],[-84.80365,40.31214],[-84.80366,40.31009],[-84.80374,40.30245],[-84.80439,40.26742],[-84.80447,40.26263],[-84.80538,40.22378],[-84.80539,40.22362],[-84.8055,40.21887],[-84.80567,40.21159],[-84.80573,40.2088],[-84.80589,40.20199],[-84.80598,40.1985],[-84.80599,40.19796],[-84.80615,40.19259],[-84.8062,40.19108],[-84.80621,40.19048],[-84.8065,40.18017],[-84.80652,40.1793],[-84.80723,40.15384],[-84.80782,40.13141],[-84.80846,40.10719],[-84.80868,40.09707],[-84.80877,40.09264],[-84.80892,40.0857],[-84.80958,40.05545],[-84.81009,40.03434],[-84.81093,40.00508],[-84.81093,40.00508],[-84.81121,39.99533],[-84.81155,39.97285],[-84.81217,39.93177],[-84.8123,39.92732],[-84.81243,39.92258],[-84.81241,39.91692],[-84.81264,39.90221],[-84.81282,39.89161],[-84.81285,39.8901],[-84.81309,39.87507],[-84.81349,39.85365],[-84.8136,39.8502],[-84.81369,39.84322],[-84.81372,39.8431],[-84.81389,39.83362],[-84.8139,39.83302],[-84.81388,39.83048],[-84.81387,39.82865],[-84.81384,39.82469],[-84.81417,39.81424],[-84.81417,39.81416],[-84.81419,39.81369],[-84.81414,39.81136],[-84.81422,39.80167],[-84.81422,39.79339],[-84.81429,39.7848],[-84.81435,39.74356],[-84.81438,39.72662],[-84.81439,39.72401],[-84.81461,39.68024],[-84.81459,39.66891],[-84.81464,39.65585],[-84.81465,39.65377],[-84.81468,39.64441],[-84.8147,39.63777],[-84.81471,39.62846],[-84.81474,39.62483],[-84.8148,39.61596],[-84.81495,39.59568],[-84.81512,39.57375],[-84.81512,39.57295],[-84.81516,39.56835],[-84.81494,39.56771],[-84.81489,39.56755],[-84.81497,39.56515],[-84.81498,39.56472],[-84.81516,39.55985],[-84.81516,39.54869],[-84.81535,39.52314],[-84.81537,39.52195],[-84.81554,39.51142],[-84.81555,39.50842],[-84.81573,39.47945],[-84.81574,39.47836],[-84.81576,39.47736],[-84.81674,39.43301],[-84.81765,39.39182],[-84.81857,39.34864],[-84.81924,39.31704],[-84.81945,39.30515],[-84.81935,39.29282],[-84.81955,39.27651],[-84.81962,39.27013],[-84.81962,39.27009],[-84.8197,39.26738],[-84.81979,39.26451],[-84.81982,39.26313],[-84.81999,39.25518],[-84.82,39.25464],[-84.81995,39.25142],[-84.81995,39.25114],[-84.81991,39.2487],[-84.81991,39.24854],[-84.81983,39.24373],[-84.82014,39.23078],[-84.82015,39.23049],[-84.82009,39.21871],[-84.82009,39.2184],[-84.82008,39.21603],[-84.81983,39.16147],[-84.81982,39.15851],[-84.81983,39.15795],[-84.8201,39.14798],[-84.82011,39.14584],[-84.82012,39.13267],[-84.82014,39.11998],[-84.82014,39.1185],[-84.82015,39.11201],[-84.82016,39.10548],[-84.82526,39.10341],[-84.83244,39.10049],[-84.83726,39.0971],[-84.84458,39.09196],[-84.84576,39.09073],[-84.84982,39.08649],[-84.85164,39.08509],[-84.86069,39.07814],[-84.86803,39.07452],[-84.87298,39.07207],[-84.88066,39.06997],[-84.88887,39.06638],[-84.8932,39.06248],[-84.89493,39.06015],[-84.89691,39.05747],[-84.89688,39.05681],[-84.89687,39.05653],[-84.89678,39.05446],[-84.89675,39.05395],[-84.89673,39.0533],[-84.89316,39.04904],[-84.88919,39.04292],[-84.8891,39.04279],[-84.88566,39.03749],[-84.87911,39.0337],[-84.87791,39.03198],[-84.87736,39.0316],[-84.87182,39.02776],[-84.86451,39.0198],[-84.85061,39.00469],[-84.84774,38.99801],[-84.83983,38.99129],[-84.83774,38.98879],[-84.83712,38.98806],[-84.83347,38.98152],[-84.83062,38.9749],[-84.83053,38.97422],[-84.82986,38.96939],[-84.83262,38.96146],[-84.83285,38.96114],[-84.83368,38.96],[-84.83516,38.95796],[-84.84016,38.95457],[-84.84105,38.95377],[-84.84154,38.95333],[-84.84416,38.95097],[-84.84932,38.94826],[-84.85301,38.94382],[-84.85374,38.94294],[-84.85661,38.94084],[-84.86473,38.93489],[-84.87076,38.92923],[-84.87776,38.92036],[-84.87927,38.91612],[-84.87923,38.9159],[-84.87882,38.9134],[-84.87703,38.90902],[-84.87116,38.90168],[-84.87057,38.90095],[-84.87012,38.90039],[-84.86778,38.89913],[-84.86076,38.89765],[-84.86006,38.89764],[-84.83047,38.89726],[-84.82865,38.89696],[-84.81694,38.89507],[-84.81275,38.89513],[-84.80108,38.89134],[-84.80025,38.89107],[-84.79248,38.88674],[-84.78641,38.88222],[-84.78523,38.88044],[-84.78458,38.87532],[-84.7858,38.8695],[-84.7883,38.86433],[-84.791,38.86057],[-84.79371,38.85779],[-84.79483,38.8572],[-84.79846,38.85528],[-84.80325,38.85072],[-84.81717,38.84342],[-84.8227,38.83965],[-84.82336,38.8392],[-84.82749,38.83491],[-84.82996,38.83063],[-84.82996,38.83042],[-84.82989,38.82541],[-84.8271,38.81863],[-84.81651,38.80532],[-84.81164,38.79277],[-84.81175,38.78917],[-84.81288,38.78609],[-84.81316,38.78583],[-84.81464,38.78449],[-84.82138,38.78311],[-84.82886,38.78327],[-84.83781,38.78491],[-84.85287,38.78938],[-84.86199,38.79109],[-84.87683,38.79247],[-84.87722,38.7925],[-84.88729,38.79478],[-84.89393,38.7937],[-84.89644,38.79273],[-84.90344,38.79002],[-84.90815,38.78765],[-84.91523,38.78409],[-84.92642,38.78048],[-84.93298,38.77752],[-84.94364,38.77543],[-84.94795,38.77549],[-84.96225,38.77818],[-84.98,38.77958],[-84.99011,38.7787],[-84.99193,38.77854],[-84.99309,38.77799],[-84.99995,38.77472],[-85.01099,38.76703],[-85.02343,38.7621],[-85.03317,38.75824],[-85.04094,38.75516],[-85.0524,38.74814],[-85.05578,38.74684],[-85.05968,38.74534],[-85.06366,38.74411],[-85.07193,38.74157],[-85.07954,38.7369],[-85.09442,38.72922],[-85.09773,38.72751],[-85.1014,38.72655],[-85.10698,38.72163],[-85.1069,38.72079],[-85.11377,38.71632],[-85.12524,38.70886],[-85.12792,38.7065],[-85.13199,38.70292],[-85.1367,38.70024],[-85.15616,38.69225],[-85.17305,38.68802],[-85.17657,38.68846],[-85.17863,38.68831],[-85.18012,38.6882],[-85.18864,38.68758],[-85.19211,38.68909],[-85.20145,38.69105],[-85.2045,38.69169],[-85.21326,38.69545],[-85.22112,38.70096],[-85.22623,38.70587],[-85.23509,38.718],[-85.24626,38.73153],[-85.2465,38.73182],[-85.24874,38.73289],[-85.25895,38.73777],[-85.2685,38.74016],[-85.27876,38.74164],[-85.28927,38.74236],[-85.2959,38.74202],[-85.30532,38.74155],[-85.33309,38.7362],[-85.33375,38.73607],[-85.3364,38.73493],[-85.33704,38.7348],[-85.34895,38.7323],[-85.36338,38.73067],[-85.36522,38.73047],[-85.36702,38.73101],[-85.36985,38.73071],[-85.3699,38.7307],[-85.37226,38.73045],[-85.38434,38.73289],[-85.39745,38.73555],[-85.39783,38.73562],[-85.41024,38.73714],[-85.41954,38.73551],[-85.42342,38.73383],[-85.42535,38.73298],[-85.4363,38.72848],[-85.44227,38.71985],[-85.44318,38.71894],[-85.45018,38.71193],[-85.45095,38.70888],[-85.45205,38.70834],[-85.45236,38.70819],[-85.45676,38.69225],[-85.45648,38.68507],[-85.45549,38.68209],[-85.45444,38.68091],[-85.44482,38.67008],[-85.43874,38.65932],[-85.43838,38.65552],[-85.43774,38.6489],[-85.43814,38.64583],[-85.43946,38.63581],[-85.43973,38.61149],[-85.43928,38.60741],[-85.4363,38.59839],[-85.43399,38.59479],[-85.42859,38.58635],[-85.41897,38.57132],[-85.41582,38.56356],[-85.41582,38.56286],[-85.41575,38.54672],[-85.41705,38.54173],[-85.42244,38.53293],[-85.42874,38.52707],[-85.43325,38.52468],[-85.43844,38.52193],[-85.45855,38.51468],[-85.46686,38.51084],[-85.46715,38.51059],[-85.4732,38.50535],[-85.47512,38.50369],[-85.47947,38.49453],[-85.48125,38.48837],[-85.4829,38.4857],[-85.48884,38.47804],[-85.49142,38.4747],[-85.49887,38.46824],[-85.5094,38.46349],[-85.51564,38.46112],[-85.52479,38.45764],[-85.53821,38.45521],[-85.54196,38.45479],[-85.55241,38.45361],[-85.56251,38.45332],[-85.56623,38.45279],[-85.57491,38.45258],[-85.58603,38.45009],[-85.5971,38.4451],[-85.60446,38.44082],[-85.60971,38.43482],[-85.61828,38.42635],[-85.62056,38.42259],[-85.62072,38.42233],[-85.62054,38.42043],[-85.62211,38.41681],[-85.62406,38.41233],[-85.62996,38.40231],[-85.63294,38.39567],[-85.63294,38.39565],[-85.63368,38.39333],[-85.63509,38.38893],[-85.63566,38.38713],[-85.63693,38.38318],[-85.63723,38.38223],[-85.63768,38.38082],[-85.63786,38.38026],[-85.63786,38.38025],[-85.63836,38.37702],[-85.63839,38.3761],[-85.6384,38.37569],[-85.63842,38.37453],[-85.63867,38.3642],[-85.63868,38.36395],[-85.64231,38.35238],[-85.64431,38.34602],[-85.64435,38.34593],[-85.64503,38.34446],[-85.64631,38.34169],[-85.65097,38.33161],[-85.65136,38.33074],[-85.6541,38.32602],[-85.65536,38.32385],[-85.65939,38.3199],[-85.6599,38.3194],[-85.66687,38.31178],[-85.66792,38.31063],[-85.67357,38.30233],[-85.6758,38.3008],[-85.67695,38.3],[-85.68356,38.29547],[-85.69937,38.28785],[-85.70399,38.28563],[-85.70466,38.2853],[-85.70512,38.28508],[-85.71601,38.27983],[-85.73253,38.27188],[-85.73544,38.27048],[-85.74086,38.26787],[-85.74468,38.26725],[-85.7447,38.26725],[-85.74508,38.26719],[-85.75066,38.26789],[-85.7512,38.26796],[-85.75147,38.268],[-85.76093,38.27198],[-85.7614,38.27237],[-85.76716,38.27732],[-85.7659,38.27908],[-85.76599,38.28034],[-85.77141,38.2841],[-85.77227,38.28559],[-85.77738,38.28655],[-85.77739,38.28655],[-85.77951,38.28768],[-85.78103,38.28848],[-85.7869,38.28853],[-85.79108,38.28776],[-85.79323,38.28736],[-85.79727,38.2857],[-85.8024,38.28481],[-85.80241,38.28481],[-85.80381,38.28457],[-85.8174,38.28239],[-85.81781,38.28224],[-85.82371,38.28019],[-85.82453,38.2799],[-85.82922,38.27651],[-85.83212,38.27181],[-85.83403,38.26873],[-85.83617,38.26529],[-85.83663,38.26339],[-85.83763,38.25924],[-85.83763,38.259],[-85.83742,38.25091],[-85.8374,38.24999],[-85.83825,38.2448],[-85.83909,38.23973],[-85.8429,38.23347],[-85.84438,38.23105],[-85.84536,38.22994],[-85.85236,38.22194],[-85.8562,38.21952],[-85.86584,38.21344],[-85.87194,38.20959],[-85.88026,38.20337],[-85.89354,38.18901],[-85.89489,38.18707],[-85.89955,38.18037],[-85.90387,38.17414],[-85.90797,38.16147],[-85.90913,38.14439],[-85.90875,38.13379],[-85.90608,38.11689],[-85.90516,38.11107],[-85.90423,38.0998],[-85.90527,38.08893],[-85.90641,38.08629],[-85.90772,38.08328],[-85.91201,38.0734],[-85.91384,38.07196],[-85.91537,38.06516],[-85.91631,38.06093],[-85.91891,38.0412],[-85.92127,38.03032],[-85.92565,38.02178],[-85.93122,38.01602],[-85.93961,38.00982],[-85.94222,38.00727],[-85.94711,38.00509],[-85.95464,38.00466],[-85.97292,38.00257],[-85.97742,38.00339],[-85.99901,37.99998],[-86.00405,37.99919],[-86.01845,37.99653],[-86.02556,37.9945],[-86.02951,37.99264],[-86.03071,37.99161],[-86.03247,37.9901],[-86.0351,37.98436],[-86.03543,37.98136],[-86.03358,37.97023],[-86.03427,37.96525],[-86.03436,37.96462],[-86.03601,37.9617],[-86.03819,37.95959],[-86.04231,37.95817],[-86.04674,37.959],[-86.05003,37.9605],[-86.058,37.96767],[-86.06486,37.97562],[-86.068,37.98066],[-86.0699,37.98371],[-86.07593,37.99549],[-86.07546,37.99718],[-86.07939,38.00062],[-86.0794,38.00063],[-86.08634,38.00493],[-86.09906,38.01042],[-86.10417,38.01263],[-86.11752,38.01544],[-86.1283,38.01619],[-86.13331,38.01582],[-86.1479,38.01475],[-86.15248,38.01302],[-86.16531,38.00987],[-86.16937,38.01],[-86.17656,38.01023],[-86.18848,38.01538],[-86.19093,38.01644],[-86.19646,38.01862],[-86.20132,38.02054],[-86.20611,38.02242],[-86.22071,38.02818],[-86.22333,38.03152],[-86.23345,38.03818],[-86.23334,38.03963],[-86.24693,38.04468],[-86.25273,38.04775],[-86.25926,38.05121],[-86.2672,38.0568],[-86.27138,38.06196],[-86.27263,38.06506],[-86.27358,38.06744],[-86.2777,38.08248],[-86.27903,38.09977],[-86.2791,38.10075],[-86.27791,38.10501],[-86.27536,38.11411],[-86.27027,38.12978],[-86.27061,38.13578],[-86.27285,38.14084],[-86.27713,38.14597],[-86.28711,38.15794],[-86.29574,38.16407],[-86.31714,38.17291],[-86.32967,38.1817],[-86.33348,38.18437],[-86.34266,38.19145],[-86.34774,38.19536],[-86.35772,38.19881],[-86.35801,38.19876],[-86.3675,38.19731],[-86.3738,38.19335],[-86.37525,38.19086],[-86.37815,38.18585],[-86.37858,38.17857],[-86.37743,38.17138],[-86.37174,38.16418],[-86.36606,38.16153],[-86.35755,38.15991],[-86.34486,38.15897],[-86.32803,38.15479],[-86.32393,38.15237],[-86.32119,38.14701],[-86.32385,38.13841],[-86.32911,38.132],[-86.33366,38.12924],[-86.34056,38.12774],[-86.35247,38.12846],[-86.37532,38.13063],[-86.37977,38.12927],[-86.38781,38.12439],[-86.39184,38.11715],[-86.39615,38.10715],[-86.40188,38.10433],[-86.40507,38.1058],[-86.41733,38.11635],[-86.4182,38.11709],[-86.42654,38.12311],[-86.42954,38.12528],[-86.43969,38.12741],[-86.44979,38.12722],[-86.45712,38.12453],[-86.46103,38.12117],[-86.46325,38.11928],[-86.46608,38.11444],[-86.46622,38.10678],[-86.46386,38.10118],[-86.45883,38.09601],[-86.44999,38.09203],[-86.44746,38.09179],[-86.43405,38.08676],[-86.43135,38.08347],[-86.43009,38.07864],[-86.43279,38.06717],[-86.43324,38.06662],[-86.43824,38.06043],[-86.45219,38.05049],[-86.46209,38.04753],[-86.4719,38.04622],[-86.48039,38.04558],[-86.49077,38.04567],[-86.50005,38.04576],[-86.51176,38.04445],[-86.51729,38.04263],[-86.5194,38.04124],[-86.52183,38.03833],[-86.52468,38.02882],[-86.52487,38.0282],[-86.52497,38.02788],[-86.52438,38.01861],[-86.52466,38.01289],[-86.52567,38.00715],[-86.52584,37.99838],[-86.52489,37.98183],[-86.52517,37.96823],[-86.52383,37.96217],[-86.5205,37.95444],[-86.51857,37.9518],[-86.51259,37.94695],[-86.50939,37.94249],[-86.50704,37.93644],[-86.50662,37.93072],[-86.50783,37.92883],[-86.511,37.92612],[-86.51924,37.92216],[-86.52615,37.91945],[-86.52828,37.91862],[-86.53416,37.91701],[-86.54072,37.91687],[-86.54851,37.91784],[-86.56626,37.92216],[-86.58032,37.92314],[-86.58654,37.92229],[-86.58858,37.92116],[-86.59613,37.91429],[-86.59845,37.91096],[-86.59985,37.90675],[-86.6001,37.90122],[-86.59815,37.88455],[-86.59832,37.88042],[-86.59939,37.87475],[-86.59748,37.87148],[-86.59732,37.87016],[-86.59811,37.86738],[-86.60381,37.8594],[-86.60462,37.85827],[-86.60916,37.85541],[-86.61522,37.85286],[-86.62576,37.84727],[-86.63351,37.84415],[-86.63427,37.84385],[-86.63827,37.84272],[-86.64803,37.84143],[-86.65252,37.84164],[-86.6553,37.84251],[-86.65827,37.84414],[-86.66164,37.84971],[-86.6625,37.85695],[-86.66123,37.86276],[-86.65837,37.86938],[-86.64873,37.88604],[-86.64475,37.89481],[-86.64404,37.8982],[-86.64414,37.90237],[-86.64551,37.90653],[-86.64708,37.90862],[-86.65009,37.91062],[-86.66089,37.91306],[-86.67237,37.9148],[-86.67304,37.9149],[-86.68093,37.91501],[-86.68601,37.91308],[-86.69199,37.90853],[-86.70346,37.90117],[-86.70782,37.89837],[-86.7121,37.89615],[-86.71614,37.89407],[-86.71846,37.89312],[-86.72034,37.89289],[-86.72225,37.89265],[-86.73146,37.89434],[-86.73472,37.89659],[-86.73767,37.89955],[-86.74561,37.9075],[-86.75099,37.91289],[-86.75527,37.91896],[-86.75663,37.9209],[-86.76473,37.93241],[-86.76541,37.93348],[-86.77403,37.94708],[-86.77471,37.94814],[-86.77551,37.94941],[-86.77619,37.95034],[-86.77717,37.9517],[-86.77992,37.95546],[-86.77857,37.9573],[-86.77926,37.95838],[-86.78133,37.96162],[-86.78717,37.9688],[-86.79051,37.98005],[-86.7938,37.98654],[-86.79551,37.98945],[-86.80014,37.99129],[-86.80313,37.99248],[-86.80493,37.99355],[-86.80506,37.99364],[-86.81091,37.99715],[-86.81348,37.99817],[-86.81468,37.99864],[-86.81527,37.99888],[-86.82007,37.99939],[-86.82349,37.99894],[-86.83516,37.99375],[-86.84903,37.99002],[-86.85595,37.98729],[-86.86322,37.9825],[-86.86903,37.97689],[-86.87587,37.97077],[-86.87936,37.96927],[-86.88648,37.96307],[-86.89029,37.95743],[-86.90198,37.94645],[-86.90726,37.94333],[-86.90932,37.94211],[-86.91795,37.93724],[-86.92583,37.93511],[-86.93336,37.93494],[-86.94463,37.93353],[-86.96479,37.93238],[-86.968,37.933],[-86.97883,37.93023],[-86.97896,37.9302],[-87.0033,37.9224],[-87.01237,37.91871],[-87.01806,37.91546],[-87.03417,37.90626],[-87.03668,37.90414],[-87.04016,37.90122],[-87.0452,37.89433],[-87.04615,37.89154],[-87.04596,37.88863],[-87.04589,37.88757],[-87.04564,37.88697],[-87.04422,37.88358],[-87.04341,37.87994],[-87.04308,37.87554],[-87.04305,37.87505],[-87.04294,37.87181],[-87.04328,37.86855],[-87.04751,37.85875],[-87.05155,37.84561],[-87.05446,37.83532],[-87.05666,37.82753],[-87.05958,37.8222],[-87.06207,37.81418],[-87.06805,37.80422],[-87.06968,37.80151],[-87.07713,37.79561],[-87.07904,37.7941],[-87.08928,37.78786],[-87.09603,37.78526],[-87.09862,37.78476],[-87.09922,37.78464],[-87.10965,37.78262],[-87.10966,37.78262],[-87.11101,37.78235],[-87.11859,37.78282],[-87.12271,37.78388],[-87.12609,37.78475],[-87.12809,37.7858],[-87.12892,37.78624],[-87.12963,37.78661],[-87.1342,37.79294],[-87.13398,37.79512],[-87.13539,37.79785],[-87.13548,37.80188],[-87.13704,37.80719],[-87.14151,37.81632],[-87.14352,37.81902],[-87.14803,37.82507],[-87.15216,37.83061],[-87.15349,37.83238],[-87.15626,37.83593],[-87.16232,37.84016],[-87.16475,37.84135],[-87.17036,37.8422],[-87.17584,37.84102],[-87.20387,37.84449],[-87.21175,37.8466],[-87.22034,37.84908],[-87.23459,37.85722],[-87.24948,37.86499],[-87.25647,37.8684],[-87.26798,37.87743],[-87.26902,37.87797],[-87.27317,37.88012],[-87.28042,37.88564],[-87.29832,37.89592],[-87.30294,37.89771],[-87.3044,37.89827],[-87.31975,37.90552],[-87.33354,37.90834],[-87.33586,37.9074],[-87.34493,37.91116],[-87.35274,37.91609],[-87.35634,37.91972],[-87.35777,37.92037],[-87.36137,37.92082],[-87.36367,37.92224],[-87.37052,37.92823],[-87.37341,37.93116],[-87.37344,37.93196],[-87.37345,37.93224],[-87.38543,37.93767],[-87.39117,37.93906],[-87.39143,37.93912],[-87.39579,37.94018],[-87.39683,37.94058],[-87.40224,37.94268],[-87.40342,37.9429],[-87.40438,37.94307],[-87.41333,37.94471],[-87.41407,37.94469],[-87.42321,37.94435],[-87.42415,37.94432],[-87.42831,37.94505],[-87.4378,37.94422],[-87.44779,37.94243],[-87.45046,37.94145],[-87.45117,37.94108],[-87.46551,37.93369],[-87.46965,37.9309],[-87.48068,37.92345],[-87.48245,37.92226],[-87.49689,37.91117],[-87.50536,37.90762],[-87.50748,37.90673],[-87.5115,37.90643],[-87.52028,37.91262],[-87.53153,37.9163],[-87.54815,37.92397],[-87.54847,37.92412],[-87.55128,37.92542],[-87.55657,37.92861],[-87.56207,37.93329],[-87.5683,37.94063],[-87.57215,37.94663],[-87.57312,37.94998],[-87.57319,37.95023],[-87.57361,37.95164],[-87.57699,37.95229],[-87.57449,37.95721],[-87.5741,37.96211],[-87.57533,37.96639],[-87.57573,37.96778],[-87.57918,37.97153],[-87.58455,37.97466],[-87.58814,37.97519],[-87.59002,37.97547],[-87.59617,37.97486],[-87.60071,37.97187],[-87.60157,37.9713],[-87.6033,37.96729],[-87.60331,37.96693],[-87.60345,37.96028],[-87.60559,37.95014],[-87.60791,37.94697],[-87.61061,37.94483],[-87.61523,37.94117],[-87.61905,37.93852],[-87.61762,37.93706],[-87.61873,37.93393],[-87.62141,37.93131],[-87.62339,37.93045],[-87.62527,37.92962],[-87.62789,37.92225],[-87.62559,37.91603],[-87.62244,37.91212],[-87.6208,37.90768],[-87.61179,37.9014],[-87.60771,37.89936],[-87.60197,37.89572],[-87.59712,37.89239],[-87.58897,37.88624],[-87.58714,37.88486],[-87.58423,37.87906],[-87.58374,37.87808],[-87.58392,37.87248],[-87.5863,37.87249],[-87.58639,37.87054],[-87.58804,37.86898],[-87.5892,37.86375],[-87.59047,37.86313],[-87.59146,37.86037],[-87.59027,37.85858],[-87.59608,37.85116],[-87.59786,37.84774],[-87.59921,37.84665],[-87.6009,37.84529],[-87.6066,37.83867],[-87.60718,37.83819],[-87.61243,37.83384],[-87.615,37.83222],[-87.6154,37.83197],[-87.62501,37.82908],[-87.63581,37.82702],[-87.63634,37.82696],[-87.6374,37.82684],[-87.64586,37.8259],[-87.65517,37.82604],[-87.66652,37.82746],[-87.6724,37.82913],[-87.67554,37.83173],[-87.67919,37.83632],[-87.68069,37.84062],[-87.6819,37.84641],[-87.68163,37.85592],[-87.6754,37.86595],[-87.66682,37.87985],[-87.66438,37.88674],[-87.66433,37.88907],[-87.66526,37.89285],[-87.66684,37.89576],[-87.67176,37.8998],[-87.67913,37.90295],[-87.6834,37.9036],[-87.68464,37.90341],[-87.68705,37.90305],[-87.70071,37.89776],[-87.71067,37.8939],[-87.72364,37.89206],[-87.72781,37.89305],[-87.7333,37.89435],[-87.73812,37.8947],[-87.75592,37.89182],[-87.76259,37.89074],[-87.78173,37.87882],[-87.78641,37.87656],[-87.79519,37.87527],[-87.80754,37.87523],[-87.81573,37.87567],[-87.82977,37.87642],[-87.83886,37.88017],[-87.84644,37.88799],[-87.84649,37.89353],[-87.85724,37.90065],[-87.86166,37.90948],[-87.86609,37.91517],[-87.87159,37.92014],[-87.87254,37.921],[-87.87732,37.92403],[-87.88332,37.92624],[-87.88844,37.92719],[-87.89247,37.92793],[-87.89436,37.92779],[-87.89806,37.92751],[-87.90479,37.92489],[-87.90654,37.92314],[-87.92174,37.90789],[-87.92709,37.9017],[-87.92777,37.90092],[-87.93213,37.89732],[-87.93678,37.89259],[-87.93717,37.89215],[-87.93837,37.8908],[-87.94007,37.88767],[-87.94084,37.88334],[-87.94102,37.87917],[-87.94,37.87504],[-87.93813,37.87065],[-87.93623,37.86794],[-87.9273,37.85871],[-87.91489,37.84962],[-87.91028,37.84342],[-87.90777,37.83761],[-87.9038,37.81776],[-87.9046,37.81253],[-87.90681,37.80762],[-87.91109,37.80516],[-87.91914,37.80213],[-87.92754,37.79985],[-87.93255,37.79767],[-87.93494,37.79522],[-87.9347,37.79183],[-87.93586,37.7897],[-87.9386,37.78791],[-87.94451,37.77526],[-87.94646,37.77348],[-87.94859,37.77234],[-87.95259,37.77174],[-87.96003,37.77322],[-87.97026,37.78186],[-87.97181,37.78465],[-87.97639,37.788],[-87.98436,37.7918],[-87.98716,37.7922],[-87.99117,37.79405],[-87.9931,37.79576],[-87.9971,37.79767],[-88.00471,37.80015],[-88.01514,37.80193],[-88.02102,37.80141],[-88.02803,37.79922],[-88.02837,37.80373],[-88.03004,37.80651],[-88.03302,37.80865],[-88.03762,37.80986],[-88.04575,37.80813],[-88.05966,37.8012],[-88.06772,37.80057],[-88.0764,37.80463],[-88.07723,37.80537],[-88.09004,37.81677],[-88.09185,37.82211],[-88.09009,37.82564],[-88.08573,37.82939],[-88.08085,37.8309],[-88.07643,37.83024],[-88.06604,37.82484],[-88.05805,37.82245],[-88.04383,37.82153],[-88.03301,37.82438],[-88.02869,37.82711],[-88.02592,37.83269],[-88.02822,37.83859],[-88.03331,37.84192],[-88.04821,37.84484],[-88.05943,37.84873],[-88.06504,37.85317],[-88.06853,37.85801],[-88.07853,37.87912],[-88.08438,37.88558],[-88.09185,37.89072],[-88.09292,37.89174],[-88.09496,37.89369],[-88.09789,37.90152],[-88.09776,37.90403]]]}}]}